{
  "type": "FeatureCollection",
  "features": [
    {
      "type": "Feature",
      "id": "imd-01",
      "properties": {
        "region_id": 1,
        "region_name": "Lakshadweep",
        "canonical_region_id": "imd-01"
      },
      "geometry": {
        "type": "Polygon",
        "coordinates": [
          [
            [
              71.5,
              8.2
            ],
            [
              74.0,
              8.2
            ],
            [
              74.0,
              12.5
            ],
            [
              71.5,
              12.5
            ],
            [
              71.5,
              8.2
            ]
          ]
        ]
      }
    },
    {
      "type": "Feature",
      "id": "imd-02",
      "properties": {
        "region_id": 2,
        "region_name": "Bihar",
        "canonical_region_id": "imd-02"
      },
      "geometry": {
        "type": "Polygon",
        "coordinates": [
          [
            [
              83.3,
              24.3
            ],
            [
              88.3,
              24.3
            ],
            [
              88.3,
              27.5
            ],
            [
              83.3,
              27.5
            ],
            [
              83.3,
              24.3
            ]
          ]
        ]
      }
    },
    {
      "type": "Feature",
      "id": "imd-03",
      "properties": {
        "region_id": 3,
        "region_name": "Jharkhand",
        "canonical_region_id": "imd-03"
      },
      "geometry": {
        "type": "Polygon",
        "coordinates": [
          [
            [
              83.3,
              21.9
            ],
            [
              87.9,
              21.9
            ],
            [
              87.9,
              25.3
            ],
            [
              83.3,
              25.3
            ],
            [
              83.3,
              21.9
            ]
          ]
        ]
      }
    },
    {
      "type": "Feature",
      "id": "imd-04",
      "properties": {
        "region_id": 4,
        "region_name": "Odisha",
        "canonical_region_id": "imd-04"
      },
      "geometry": {
        "type": "Polygon",
        "coordinates": [
          [
            [
              81.3,
              17.8
            ],
            [
              87.5,
              17.8
            ],
            [
              87.5,
              22.6
            ],
            [
              81.3,
              22.6
            ],
            [
              81.3,
              17.8
            ]
          ]
        ]
      }
    },
    {
      "type": "Feature",
      "id": "imd-05",
      "properties": {
        "region_id": 5,
        "region_name": "Gangetic West Bengal",
        "canonical_region_id": "imd-05"
      },
      "geometry": {
        "type": "Polygon",
        "coordinates": [
          [
            [
              86.5,
              21.5
            ],
            [
              89.0,
              21.5
            ],
            [
              89.0,
              24.5
            ],
            [
              86.5,
              24.5
            ],
            [
              86.5,
              21.5
            ]
          ]
        ]
      }
    },
    {
      "type": "Feature",
      "id": "imd-06",
      "properties": {
        "region_id": 6,
        "region_name": "Sub-Himalayan West Bengal and Sikkim",
        "canonical_region_id": "imd-06"
      },
      "geometry": {
        "type": "Polygon",
        "coordinates": [
          [
            [
              87.9,
              24.5
            ],
            [
              89.9,
              24.5
            ],
            [
              89.9,
              28.1
            ],
            [
              87.9,
              28.1
            ],
            [
              87.9,
              24.5
            ]
          ]
        ]
      }
    },
    {
      "type": "Feature",
      "id": "imd-07",
      "properties": {
        "region_id": 7,
        "region_name": "Nagaland, Manipur, Mizoram and Tripura",
        "canonical_region_id": "imd-07"
      },
      "geometry": {
        "type": "Polygon",
        "coordinates": [
          [
            [
              91.1,
              21.9
            ],
            [
              95.2,
              21.9
            ],
            [
              95.2,
              27.0
            ],
            [
              91.1,
              27.0
            ],
            [
              91.1,
              21.9
            ]
          ]
        ]
      }
    },
    {
      "type": "Feature",
      "id": "imd-08",
      "properties": {
        "region_id": 8,
        "region_name": "Assam and Meghalaya",
        "canonical_region_id": "imd-08"
      },
      "geometry": {
        "type": "Polygon",
        "coordinates": [
          [
            [
              89.7,
              24.5
            ],
            [
              96.0,
              24.5
            ],
            [
              96.0,
              28.0
            ],
            [
              89.7,
              28.0
            ],
            [
              89.7,
              24.5
            ]
          ]
        ]
      }
    },
    {
      "type": "Feature",
      "id": "imd-09",
      "properties": {
        "region_id": 9,
        "region_name": "Arunachal Pradesh",
        "canonical_region_id": "imd-09"
      },
      "geometry": {
        "type": "Polygon",
        "coordinates": [
          [
            [
              91.5,
              26.5
            ],
            [
              97.4,
              26.5
            ],
            [
              97.4,
              29.5
            ],
            [
              91.5,
              29.5
            ],
            [
              91.5,
              26.5
            ]
          ]
        ]
      }
    },
    {
      "type": "Feature",
      "id": "imd-10",
      "properties": {
        "region_id": 10,
        "region_name": "Andaman and Nicobar Islands",
        "canonical_region_id": "imd-10"
      },
      "geometry": {
        "type": "Polygon",
        "coordinates": [
          [
            [
              92.2,
              6.7
            ],
            [
              94.0,
              6.7
            ],
            [
              94.0,
              13.7
            ],
            [
              92.2,
              13.7
            ],
            [
              92.2,
              6.7
            ]
          ]
        ]
      }
    },
    {
      "type": "Feature",
      "id": "imd-11",
      "properties": {
        "region_id": 11,
        "region_name": "West Uttar Pradesh",
        "canonical_region_id": "imd-11"
      },
      "geometry": {
        "type": "Polygon",
        "coordinates": [
          [
            [
              77.0,
              26.5
            ],
            [
              81.0,
              26.5
            ],
            [
              81.0,
              30.5
            ],
            [
              77.0,
              30.5
            ],
            [
              77.0,
              26.5
            ]
          ]
        ]
      }
    },
    {
      "type": "Feature",
      "id": "imd-12",
      "properties": {
        "region_id": 12,
        "region_name": "East Uttar Pradesh",
        "canonical_region_id": "imd-12"
      },
      "geometry": {
        "type": "Polygon",
        "coordinates": [
          [
            [
              80.5,
              24.0
            ],
            [
              84.5,
              24.0
            ],
            [
              84.5,
              28.5
            ],
            [
              80.5,
              28.5
            ],
            [
              80.5,
              24.0
            ]
          ]
        ]
      }
    },
    {
      "type": "Feature",
      "id": "imd-13",
      "properties": {
        "region_id": 13,
        "region_name": "Chhattisgarh",
        "canonical_region_id": "imd-13"
      },
      "geometry": {
        "type": "Polygon",
        "coordinates": [
          [
            [
              80.2,
              17.8
            ],
            [
              84.4,
              17.8
            ],
            [
              84.4,
              24.1
            ],
            [
              80.2,
              24.1
            ],
            [
              80.2,
              17.8
            ]
          ]
        ]
      }
    },
    {
      "type": "Feature",
      "id": "imd-14",
      "properties": {
        "region_id": 14,
        "region_name": "Jammu and Kashmir",
        "canonical_region_id": "imd-14"
      },
      "geometry": {
        "type": "Polygon",
        "coordinates": [
          [
            [
              73.5,
              32.2
            ],
            [
              79.0,
              32.2
            ],
            [
              79.0,
              36.5
            ],
            [
              73.5,
              36.5
            ],
            [
              73.5,
              32.2
            ]
          ]
        ]
      }
    },
    {
      "type": "Feature",
      "id": "imd-15",
      "properties": {
        "region_id": 15,
        "region_name": "Himachal Pradesh",
        "canonical_region_id": "imd-15"
      },
      "geometry": {
        "type": "Polygon",
        "coordinates": [
          [
            [
              75.5,
              30.3
            ],
            [
              79.0,
              30.3
            ],
            [
              79.0,
              33.3
            ],
            [
              75.5,
              33.3
            ],
            [
              75.5,
              30.3
            ]
          ]
        ]
      }
    },
    {
      "type": "Feature",
      "id": "imd-16",
      "properties": {
        "region_id": 16,
        "region_name": "Punjab",
        "canonical_region_id": "imd-16"
      },
      "geometry": {
        "type": "Polygon",
        "coordinates": [
          [
            [
              73.8,
              29.5
            ],
            [
              76.9,
              29.5
            ],
            [
              76.9,
              32.5
            ],
            [
              73.8,
              32.5
            ],
            [
              73.8,
              29.5
            ]
          ]
        ]
      }
    },
    {
      "type": "Feature",
      "id": "imd-17",
      "properties": {
        "region_id": 17,
        "region_name": "Haryana, Chandigarh and Delhi",
        "canonical_region_id": "imd-17"
      },
      "geometry": {
        "type": "Polygon",
        "coordinates": [
          [
            [
              74.4,
              27.6
            ],
            [
              77.6,
              27.6
            ],
            [
              77.6,
              30.9
            ],
            [
              74.4,
              30.9
            ],
            [
              74.4,
              27.6
            ]
          ]
        ]
      }
    },
    {
      "type": "Feature",
      "id": "imd-18",
      "properties": {
        "region_id": 18,
        "region_name": "Uttarakhand",
        "canonical_region_id": "imd-18"
      },
      "geometry": {
        "type": "Polygon",
        "coordinates": [
          [
            [
              77.5,
              28.7
            ],
            [
              81.0,
              28.7
            ],
            [
              81.0,
              31.5
            ],
            [
              77.5,
              31.5
            ],
            [
              77.5,
              28.7
            ]
          ]
        ]
      }
    },
    {
      "type": "Feature",
      "id": "imd-19",
      "properties": {
        "region_id": 19,
        "region_name": "Vidarbha",
        "canonical_region_id": "imd-19"
      },
      "geometry": {
        "type": "Polygon",
        "coordinates": [
          [
            [
              76.0,
              19.5
            ],
            [
              80.5,
              19.5
            ],
            [
              80.5,
              21.8
            ],
            [
              76.0,
              21.8
            ],
            [
              76.0,
              19.5
            ]
          ]
        ]
      }
    },
    {
      "type": "Feature",
      "id": "imd-20",
      "properties": {
        "region_id": 20,
        "region_name": "Marathwada",
        "canonical_region_id": "imd-20"
      },
      "geometry": {
        "type": "Polygon",
        "coordinates": [
          [
            [
              74.5,
              17.5
            ],
            [
              78.2,
              17.5
            ],
            [
              78.2,
              20.0
            ],
            [
              74.5,
              20.0
            ],
            [
              74.5,
              17.5
            ]
          ]
        ]
      }
    },
    {
      "type": "Feature",
      "id": "imd-21",
      "properties": {
        "region_id": 21,
        "region_name": "Madhya Maharashtra",
        "canonical_region_id": "imd-21"
      },
      "geometry": {
        "type": "Polygon",
        "coordinates": [
          [
            [
              73.5,
              15.6
            ],
            [
              76.0,
              15.6
            ],
            [
              76.0,
              21.5
            ],
            [
              73.5,
              21.5
            ],
            [
              73.5,
              15.6
            ]
          ]
        ]
      }
    },
    {
      "type": "Feature",
      "id": "imd-22",
      "properties": {
        "region_id": 22,
        "region_name": "East Madhya Pradesh",
        "canonical_region_id": "imd-22"
      },
      "geometry": {
        "type": "Polygon",
        "coordinates": [
          [
            [
              78.5,
              21.5
            ],
            [
              82.8,
              21.5
            ],
            [
              82.8,
              25.2
            ],
            [
              78.5,
              25.2
            ],
            [
              78.5,
              21.5
            ]
          ]
        ]
      }
    },
    {
      "type": "Feature",
      "id": "imd-23",
      "properties": {
        "region_id": 23,
        "region_name": "West Madhya Pradesh",
        "canonical_region_id": "imd-23"
      },
      "geometry": {
        "type": "Polygon",
        "coordinates": [
          [
            [
              74.0,
              21.0
            ],
            [
              79.0,
              21.0
            ],
            [
              79.0,
              26.9
            ],
            [
              74.0,
              26.9
            ],
            [
              74.0,
              21.0
            ]
          ]
        ]
      }
    },
    {
      "type": "Feature",
      "id": "imd-24",
      "properties": {
        "region_id": 24,
        "region_name": "East Rajasthan",
        "canonical_region_id": "imd-24"
      },
      "geometry": {
        "type": "Polygon",
        "coordinates": [
          [
            [
              74.5,
              23.0
            ],
            [
              78.2,
              23.0
            ],
            [
              78.2,
              28.5
            ],
            [
              74.5,
              28.5
            ],
            [
              74.5,
              23.0
            ]
          ]
        ]
      }
    },
    {
      "type": "Feature",
      "id": "imd-25",
      "properties": {
        "region_id": 25,
        "region_name": "West Rajasthan",
        "canonical_region_id": "imd-25"
      },
      "geometry": {
        "type": "Polygon",
        "coordinates": [
          [
            [
              69.5,
              24.5
            ],
            [
              75.5,
              24.5
            ],
            [
              75.5,
              30.2
            ],
            [
              69.5,
              30.2
            ],
            [
              69.5,
              24.5
            ]
          ]
        ]
      }
    },
    {
      "type": "Feature",
      "id": "imd-26",
      "properties": {
        "region_id": 26,
        "region_name": "Telangana",
        "canonical_region_id": "imd-26"
      },
      "geometry": {
        "type": "Polygon",
        "coordinates": [
          [
            [
              77.2,
              15.8
            ],
            [
              81.3,
              15.8
            ],
            [
              81.3,
              19.9
            ],
            [
              77.2,
              19.9
            ],
            [
              77.2,
              15.8
            ]
          ]
        ]
      }
    },
    {
      "type": "Feature",
      "id": "imd-27",
      "properties": {
        "region_id": 27,
        "region_name": "Rayalaseema",
        "canonical_region_id": "imd-27"
      },
      "geometry": {
        "type": "Polygon",
        "coordinates": [
          [
            [
              76.8,
              12.6
            ],
            [
              79.9,
              12.6
            ],
            [
              79.9,
              16.2
            ],
            [
              76.8,
              16.2
            ],
            [
              76.8,
              12.6
            ]
          ]
        ]
      }
    },
    {
      "type": "Feature",
      "id": "imd-28",
      "properties": {
        "region_id": 28,
        "region_name": "South Interior Karnataka",
        "canonical_region_id": "imd-28"
      },
      "geometry": {
        "type": "Polygon",
        "coordinates": [
          [
            [
              74.5,
              11.5
            ],
            [
              78.5,
              11.5
            ],
            [
              78.5,
              15.0
            ],
            [
              74.5,
              15.0
            ],
            [
              74.5,
              11.5
            ]
          ]
        ]
      }
    },
    {
      "type": "Feature",
      "id": "imd-29",
      "properties": {
        "region_id": 29,
        "region_name": "North Interior Karnataka",
        "canonical_region_id": "imd-29"
      },
      "geometry": {
        "type": "Polygon",
        "coordinates": [
          [
            [
              74.0,
              14.5
            ],
            [
              77.6,
              14.5
            ],
            [
              77.6,
              18.5
            ],
            [
              74.0,
              18.5
            ],
            [
              74.0,
              14.5
            ]
          ]
        ]
      }
    },
    {
      "type": "Feature",
      "id": "imd-30",
      "properties": {
        "region_id": 30,
        "region_name": "Coastal Karnataka",
        "canonical_region_id": "imd-30"
      },
      "geometry": {
        "type": "Polygon",
        "coordinates": [
          [
            [
              74.0,
              12.5
            ],
            [
              75.0,
              12.5
            ],
            [
              75.0,
              15.0
            ],
            [
              74.0,
              15.0
            ],
            [
              74.0,
              12.5
            ]
          ]
        ]
      }
    },
    {
      "type": "Feature",
      "id": "imd-31",
      "properties": {
        "region_id": 31,
        "region_name": "Saurashtra and Kutch",
        "canonical_region_id": "imd-31"
      },
      "geometry": {
        "type": "Polygon",
        "coordinates": [
          [
            [
              68.1,
              20.7
            ],
            [
              72.3,
              20.7
            ],
            [
              72.3,
              24.7
            ],
            [
              68.1,
              24.7
            ],
            [
              68.1,
              20.7
            ]
          ]
        ]
      }
    },
    {
      "type": "Feature",
      "id": "imd-32",
      "properties": {
        "region_id": 32,
        "region_name": "Gujarat Region",
        "canonical_region_id": "imd-32"
      },
      "geometry": {
        "type": "Polygon",
        "coordinates": [
          [
            [
              71.5,
              20.1
            ],
            [
              74.5,
              20.1
            ],
            [
              74.5,
              24.7
            ],
            [
              71.5,
              24.7
            ],
            [
              71.5,
              20.1
            ]
          ]
        ]
      }
    },
    {
      "type": "Feature",
      "id": "imd-33",
      "properties": {
        "region_id": 33,
        "region_name": "Coastal Andhra Pradesh and Yanam",
        "canonical_region_id": "imd-33"
      },
      "geometry": {
        "type": "Polygon",
        "coordinates": [
          [
            [
              79.9,
              13.5
            ],
            [
              84.8,
              13.5
            ],
            [
              84.8,
              19.1
            ],
            [
              79.9,
              19.1
            ],
            [
              79.9,
              13.5
            ]
          ]
        ]
      }
    },
    {
      "type": "Feature",
      "id": "imd-34",
      "properties": {
        "region_id": 34,
        "region_name": "Kerala and Mahe",
        "canonical_region_id": "imd-34"
      },
      "geometry": {
        "type": "Polygon",
        "coordinates": [
          [
            [
              74.8,
              8.3
            ],
            [
              77.5,
              8.3
            ],
            [
              77.5,
              12.8
            ],
            [
              74.8,
              12.8
            ],
            [
              74.8,
              8.3
            ]
          ]
        ]
      }
    },
    {
      "type": "Feature",
      "id": "imd-35",
      "properties": {
        "region_id": 35,
        "region_name": "Konkan and Goa",
        "canonical_region_id": "imd-35"
      },
      "geometry": {
        "type": "Polygon",
        "coordinates": [
          [
            [
              72.6,
              14.8
            ],
            [
              73.5,
              14.8
            ],
            [
              73.5,
              20.2
            ],
            [
              72.6,
              20.2
            ],
            [
              72.6,
              14.8
            ]
          ]
        ]
      }
    },
    {
      "type": "Feature",
      "id": "imd-36",
      "properties": {
        "region_id": 36,
        "region_name": "Tamil Nadu, Puducherry and Karaikal",
        "canonical_region_id": "imd-36"
      },
      "geometry": {
        "type": "Polygon",
        "coordinates": [
          [
            [
              76.2,
              8.1
            ],
            [
              80.3,
              8.1
            ],
            [
              80.3,
              13.6
            ],
            [
              76.2,
              13.6
            ],
            [
              76.2,
              8.1
            ]
          ]
        ]
      }
    }
  ]
}